SL-8 R/B                
1 21088U 91006B   26110.84881237  .00000155  00000+0  14036-3 0  9993
2 21088  82.9407 138.6946 0020921 277.5319 256.1678 13.77502912769875
OKEAN-3                 
1 21397U 91039A   26110.23534451  .00001520  00000+0  10490-3 0  9995
2 21397  82.5131 296.5756 0014104 182.3299 177.7864 15.05026444871285
COSMOS 2151             
1 21422U 91042A   26110.90416922  .00001298  00000+0  10146-3 0  9994
2 21422  82.4982  42.9478 0010616 278.9107  81.0916 15.00279336869529
SL-14 R/B               
1 21423U 91042B   26110.89326716  .00000255  00000+0  29156-4 0  9998
2 21423  82.4953 180.6204 0018580 101.7956 258.5344 14.81867420859326
ERS-1                   
1 21574U 91050A   26110.95951420  .00000207  00000+0  80797-4 0  9992
2 21574  98.7842 130.2508 0033083  77.5844 282.9043 14.39480159821812
ARIANE 40 R/B           
1 21610U 91050F   26110.84062758  .00000167  00000+0  62364-4 0  9993
2 21610  98.1931 161.4773 0002049 326.1039  34.0021 14.42922256825070
INTERCOSMOS 25          
1 21819U 91086A   26110.83576723  .00000802  00000+0  15301-3 0  9998
2 21819  82.5991 284.5181 1485795  26.1052 340.7786 12.12123086501794
SL-8 R/B                
1 21876U 92008B   26110.83579347  .00000018  00000+0  25429-5 0  9994
2 21876  82.9271 236.4239 0034926  19.2046  95.5540 13.75970082715216
SL-8 R/B                
1 21938U 92020B   26110.75840345 -.00000049  00000+0 -66210-4 0  9995
2 21938  82.9271 122.5178 0029061 177.5323 357.0602 13.75548974706915
USA 81                  
1 21949U 92023A   26110.92252116  .00000125  00000+0  39015-4 0  9998
2 21949  85.0035 107.0612 0001279  96.0792 264.0547 14.32381082100839
COSMOS 2219             
1 22219U 92076A   26110.89313609  .00000292  00000+0  17800-3 0  9990
2 22219  71.0586 289.8439 0017095 140.5603 219.6768 14.14091934724344
SL-16 R/B               
1 22220U 92076B   26110.97775262 -.00000181  00000+0 -66184-4 0  9997
2 22220  70.9980  99.2945 0011808  20.4461   0.1294 14.16866784727829
COSMOS 2221             
1 22236U 92080A   26110.83465440  .00001400  00000+0  12111-3 0  9991
2 22236  82.5037 238.6999 0015332  55.1276 305.1385 14.96373062787095
SL-16 R/B               
1 22285U 92093B   26110.85878391  .00000184  00000+0  11874-3 0  9997
2 22285  71.0200 275.7397 0006243 250.5791 109.4657 14.15454374719125
COSMOS 2228             
1 22286U 92094A   26110.88947690  .00001377  00000+0  11578-3 0  9997
2 22286  82.5206 196.9107 0018651 156.0034 204.2062 14.97394229782371
SL-16 R/B               
1 22566U 93016B   26110.76208476 -.00000275  00000+0 -11662-3 0  9994
2 22566  71.0041 126.8198 0012646 261.2570  98.7121 14.15311427708128
COSMOS 2242             
1 22626U 93024A   26110.82332792  .00001400  00000+0  11996-3 0  9995
2 22626  82.5200 226.4087 0016876 159.2105 200.9807 14.96727145786695
