[{"OBJECT_NAME":"SL-8 R/B","OBJECT_ID":"1991-006B","EPOCH":"2026-04-20T20:22:17.388768","MEAN_MOTION":13.77502912,"ECCENTRICITY":0.00209214,"INCLINATION":82.9407,"RA_OF_ASC_NODE":138.6946,"ARG_OF_PERICENTER":277.5319,"MEAN_ANOMALY":256.1678,"EPHEMERIS_TYPE":0,"CLASSIFICATION_TYPE":"U","NORAD_CAT_ID":21088,"ELEMENT_SET_NO":999,"REV_AT_EPOCH":76987,"BSTAR":0.00014036072,"MEAN_MOTION_DOT":1.55e-6,"MEAN_MOTION_DDOT":0},{"OBJECT_NAME":"OKEAN-3","OBJECT_ID":"1991-039A","EPOCH":"2026-04-20T05:38:53.765664","MEAN_MOTION":15.05026444,"ECCENTRICITY":0.0014104,"INCLINATION":82.5131,"RA_OF_ASC_NODE":296.5756,"ARG_OF_PERICENTER":182.3299,"MEAN_ANOMALY":177.7864,"EPHEMERIS_TYPE":0,"CLASSIFICATION_TYPE":"U","NORAD_CAT_ID":21397,"ELEMENT_SET_NO":999,"REV_AT_EPOCH":87128,"BSTAR":0.0001049,"MEAN_MOTION_DOT":1.52e-5,"MEAN_MOTION_DDOT":0},{"OBJECT_NAME":"COSMOS 2151","OBJECT_ID":"1991-042A","EPOCH":"2026-04-20T21:42:00.220608","MEAN_MOTION":15.00279336,"ECCENTRICITY":0.00106165,"INCLINATION":82.4982,"RA_OF_ASC_NODE":42.9478,"ARG_OF_PERICENTER":278.9107,"MEAN_ANOMALY":81.0916,"EPHEMERIS_TYPE":0,"CLASSIFICATION_TYPE":"U","NORAD_CAT_ID":21422,"ELEMENT_SET_NO":999,"REV_AT_EPOCH":86952,"BSTAR":0.00010146048,"MEAN_MOTION_DOT":1.298e-5,"MEAN_MOTION_DDOT":0},{"OBJECT_NAME":"SL-14 R/B","OBJECT_ID":"1991-042B","EPOCH":"2026-04-20T21:26:18.282624","MEAN_MOTION":14.8186742,"ECCENTRICITY":0.00185809,"INCLINATION":82.4953,"RA_OF_ASC_NODE":180.6204,"ARG_OF_PERICENTER":101.7956,"MEAN_ANOMALY":258.5344,"EPHEMERIS_TYPE":0,"CLASSIFICATION_TYPE":"U","NORAD_CAT_ID":21423,"ELEMENT_SET_NO":999,"REV_AT_EPOCH":85932,"BSTAR":2.9155669e-5,"MEAN_MOTION_DOT":2.55e-6,"MEAN_MOTION_DDOT":0},{"OBJECT_NAME":"ERS-1","OBJECT_ID":"1991-050A","EPOCH":"2026-04-20T23:01:42.026880","MEAN_MOTION":14.39480159,"ECCENTRICITY":0.00330839,"INCLINATION":98.7842,"RA_OF_ASC_NODE":130.2508,"ARG_OF_PERICENTER":77.5844,"MEAN_ANOMALY":282.9043,"EPHEMERIS_TYPE":0,"CLASSIFICATION_TYPE":"U","NORAD_CAT_ID":21574,"ELEMENT_SET_NO":999,"REV_AT_EPOCH":82181,"BSTAR":8.0797213e-5,"MEAN_MOTION_DOT":2.07e-6,"MEAN_MOTION_DDOT":0},{"OBJECT_NAME":"ARIANE 40 R/B","OBJECT_ID":"1991-050F","EPOCH":"2026-04-20T20:10:30.222912","MEAN_MOTION":14.42922256,"ECCENTRICITY":0.00020493,"INCLINATION":98.1931,"RA_OF_ASC_NODE":161.4773,"ARG_OF_PERICENTER":326.1039,"MEAN_ANOMALY":34.0021,"EPHEMERIS_TYPE":0,"CLASSIFICATION_TYPE":"U","NORAD_CAT_ID":21610,"ELEMENT_SET_NO":999,"REV_AT_EPOCH":82507,"BSTAR":6.2363808e-5,"MEAN_MOTION_DOT":1.67e-6,"MEAN_MOTION_DDOT":0},{"OBJECT_NAME":"INTERCOSMOS 25","OBJECT_ID":"1991-086A","EPOCH":"2026-04-20T20:03:30.288672","MEAN_MOTION":12.12123086,"ECCENTRICITY":0.14857957,"INCLINATION":82.5991,"RA_OF_ASC_NODE":284.5181,"ARG_OF_PERICENTER":26.1052,"MEAN_ANOMALY":340.7786,"EPHEMERIS_TYPE":0,"CLASSIFICATION_TYPE":"U","NORAD_CAT_ID":21819,"ELEMENT_SET_NO":999,"REV_AT_EPOCH":50179,"BSTAR":0.00015301162,"MEAN_MOTION_DOT":8.02e-6,"MEAN_MOTION_DDOT":0},{"OBJECT_NAME":"SL-8 R/B","OBJECT_ID":"1992-008B","EPOCH":"2026-04-20T20:03:32.555808","MEAN_MOTION":13.75970082,"ECCENTRICITY":0.00349269,"INCLINATION":82.9271,"RA_OF_ASC_NODE":236.4239,"ARG_OF_PERICENTER":19.2046,"MEAN_ANOMALY":95.554,"EPHEMERIS_TYPE":0,"CLASSIFICATION_TYPE":"U","NORAD_CAT_ID":21876,"ELEMENT_SET_NO":999,"REV_AT_EPOCH":71521,"BSTAR":2.542871e-6,"MEAN_MOTION_DOT":1.8e-7,"MEAN_MOTION_DDOT":0},{"OBJECT_NAME":"SL-8 R/B","OBJECT_ID":"1992-020B","EPOCH":"2026-04-20T18:12:06.058080","MEAN_MOTION":13.75548974,"ECCENTRICITY":0.0029061,"INCLINATION":82.9271,"RA_OF_ASC_NODE":122.5178,"ARG_OF_PERICENTER":177.5323,"MEAN_ANOMALY":357.0602,"EPHEMERIS_TYPE":0,"CLASSIFICATION_TYPE":"U","NORAD_CAT_ID":21938,"ELEMENT_SET_NO":999,"REV_AT_EPOCH":70691,"BSTAR":-6.62102e-5,"MEAN_MOTION_DOT":-4.9e-7,"MEAN_MOTION_DDOT":0},{"OBJECT_NAME":"USA 81","OBJECT_ID":"1992-023A","EPOCH":"2026-04-20T22:08:25.828224","MEAN_MOTION":14.32381082,"ECCENTRICITY":0.00012796,"INCLINATION":85.0035,"RA_OF_ASC_NODE":107.0612,"ARG_OF_PERICENTER":96.0792,"MEAN_ANOMALY":264.0547,"EPHEMERIS_TYPE":0,"CLASSIFICATION_TYPE":"U","NORAD_CAT_ID":21949,"ELEMENT_SET_NO":999,"REV_AT_EPOCH":10083,"BSTAR":3.9014929e-5,"MEAN_MOTION_DOT":1.25e-6,"MEAN_MOTION_DDOT":0},{"OBJECT_NAME":"COSMOS 2219","OBJECT_ID":"1992-076A","EPOCH":"2026-04-20T21:26:06.958176","MEAN_MOTION":14.14091934,"ECCENTRICITY":0.00170954,"INCLINATION":71.0586,"RA_OF_ASC_NODE":289.8439,"ARG_OF_PERICENTER":140.5603,"MEAN_ANOMALY":219.6768,"EPHEMERIS_TYPE":0,"CLASSIFICATION_TYPE":"U","NORAD_CAT_ID":22219,"ELEMENT_SET_NO":999,"REV_AT_EPOCH":72434,"BSTAR":0.00017799909,"MEAN_MOTION_DOT":2.92e-6,"MEAN_MOTION_DDOT":0},{"OBJECT_NAME":"SL-16 R/B","OBJECT_ID":"1992-076B","EPOCH":"2026-04-20T23:27:57.826368","MEAN_MOTION":14.16866784,"ECCENTRICITY":0.00118086,"INCLINATION":70.998,"RA_OF_ASC_NODE":99.2945,"ARG_OF_PERICENTER":20.4461,"MEAN_ANOMALY":0.1294,"EPHEMERIS_TYPE":0,"CLASSIFICATION_TYPE":"U","NORAD_CAT_ID":22220,"ELEMENT_SET_NO":999,"REV_AT_EPOCH":72782,"BSTAR":-6.6183712e-5,"MEAN_MOTION_DOT":-1.81e-6,"MEAN_MOTION_DDOT":0},{"OBJECT_NAME":"COSMOS 2221","OBJECT_ID":"1992-080A","EPOCH":"2026-04-20T20:01:54.140160","MEAN_MOTION":14.96373062,"ECCENTRICITY":0.00153322,"INCLINATION":82.5037,"RA_OF_ASC_NODE":238.6999,"ARG_OF_PERICENTER":55.1276,"MEAN_ANOMALY":305.1385,"EPHEMERIS_TYPE":0,"CLASSIFICATION_TYPE":"U","NORAD_CAT_ID":22236,"ELEMENT_SET_NO":999,"REV_AT_EPOCH":78709,"BSTAR":0.00012111418,"MEAN_MOTION_DOT":1.4e-5,"MEAN_MOTION_DDOT":0},{"OBJECT_NAME":"SL-16 R/B","OBJECT_ID":"1992-093B","EPOCH":"2026-04-20T20:36:38.929824","MEAN_MOTION":14.15454374,"ECCENTRICITY":0.00062437,"INCLINATION":71.02,"RA_OF_ASC_NODE":275.7397,"ARG_OF_PERICENTER":250.5791,"MEAN_ANOMALY":109.4657,"EPHEMERIS_TYPE":0,"CLASSIFICATION_TYPE":"U","NORAD_CAT_ID":22285,"ELEMENT_SET_NO":999,"REV_AT_EPOCH":71912,"BSTAR":0.00011874079,"MEAN_MOTION_DOT":1.84e-6,"MEAN_MOTION_DDOT":0},{"OBJECT_NAME":"COSMOS 2228","OBJECT_ID":"1992-094A","EPOCH":"2026-04-20T21:20:50.804160","MEAN_MOTION":14.97394229,"ECCENTRICITY":0.00186516,"INCLINATION":82.5206,"RA_OF_ASC_NODE":196.9107,"ARG_OF_PERICENTER":156.0034,"MEAN_ANOMALY":204.2062,"EPHEMERIS_TYPE":0,"CLASSIFICATION_TYPE":"U","NORAD_CAT_ID":22286,"ELEMENT_SET_NO":999,"REV_AT_EPOCH":78237,"BSTAR":0.00011578132,"MEAN_MOTION_DOT":1.377e-5,"MEAN_MOTION_DDOT":0},{"OBJECT_NAME":"SL-16 R/B","OBJECT_ID":"1993-016B","EPOCH":"2026-04-20T18:17:24.123264","MEAN_MOTION":14.15311427,"ECCENTRICITY":0.00126468,"INCLINATION":71.0041,"RA_OF_ASC_NODE":126.8198,"ARG_OF_PERICENTER":261.257,"MEAN_ANOMALY":98.7121,"EPHEMERIS_TYPE":0,"CLASSIFICATION_TYPE":"U","NORAD_CAT_ID":22566,"ELEMENT_SET_NO":999,"REV_AT_EPOCH":70812,"BSTAR":-0.00011661773,"MEAN_MOTION_DOT":-2.75e-6,"MEAN_MOTION_DDOT":0},{"OBJECT_NAME":"COSMOS 2242","OBJECT_ID":"1993-024A","EPOCH":"2026-04-20T19:45:35.532288","MEAN_MOTION":14.96727145,"ECCENTRICITY":0.00168767,"INCLINATION":82.52,"RA_OF_ASC_NODE":226.4087,"ARG_OF_PERICENTER":159.2105,"MEAN_ANOMALY":200.9807,"EPHEMERIS_TYPE":0,"CLASSIFICATION_TYPE":"U","NORAD_CAT_ID":22626,"ELEMENT_SET_NO":999,"REV_AT_EPOCH":78669,"BSTAR":0.00011996445,"MEAN_MOTION_DOT":1.4e-5,"MEAN_MOTION_DDOT":0}]
